[{"OBJECT_NAME":"STARLINK-5108","OBJECT_ID":"2022-125AE","EPOCH":"2026-03-09T16:43:19.014240","MEAN_MOTION":15.08840032,"ECCENTRICITY":0.00012514,"INCLINATION":53.217,"RA_OF_ASC_NODE":214.0862,"ARG_OF_PERICENTER":104.8042,"MEAN_ANOMALY":255.3089,"EPHEMERIS_TYPE":0,"CLASSIFICATION_TYPE":"U","NORAD_CAT_ID":53992,"ELEMENT_SET_NO":999,"REV_AT_EPOCH":18945,"BSTAR":1.4438864e-5,"MEAN_MOTION_DOT":-5.8e-7,"MEAN_MOTION_DDOT":0},{"OBJECT_NAME":"CZ-6A DEB","OBJECT_ID":"2024-140ADS","EPOCH":"2026-03-09T14:05:09.302208","MEAN_MOTION":15.17885306,"ECCENTRICITY":0.0073653,"INCLINATION":89.0442,"RA_OF_ASC_NODE":281.8925,"ARG_OF_PERICENTER":121.24,"MEAN_ANOMALY":239.6089,"EPHEMERIS_TYPE":0,"CLASSIFICATION_TYPE":"U","NORAD_CAT_ID":64628,"ELEMENT_SET_NO":999,"REV_AT_EPOCH":8034,"BSTAR":0.0029018,"MEAN_MOTION_DOT":0.00063537,"MEAN_MOTION_DDOT":0}]
